KUIPER-00074            
1 64821U 25151F   25316.74153600  .00011231  00000+0  14984-2 0  9993
2 64821  51.9006  87.7268 0012228 238.5972 121.3795 14.79930290 18127
KUIPER-00075            
1 64822U 25151G   25316.72739193  .00091333  00000+0  22284-2 0  9992
2 64822  51.8772  69.8216 0004497 210.2079 149.8650 15.40093486 18373
KUIPER-00076            
1 64823U 25151H   25316.80631182  .00008128  00000+0  10920-2 0  9995
2 64823  51.8993  89.9358 0003773 232.3710 127.6910 14.80003262 18102
KUIPER-00077            
1 64824U 25151J   25316.66602595  .00010812  00000+0  14441-2 0  9991
2 64824  51.9009  95.5603 0006377 182.6971 177.3958 14.79951734 18015
KUIPER-00078            
1 64825U 25151K   25315.41932325  .00006758  00000+0  91462-3 0  9994
2 64825  51.8979  98.5707 0007275 247.6709 112.3482 14.79923143 17864
KUIPER-00079            
1 64826U 25151L   25316.77917200 -.00005253  00000+0 -69098-3 0  9991
2 64826  51.8975  97.3507 0012033 208.2735 151.7574 14.77987243 19192
KUIPER-00080            
1 64827U 25151M   25316.69694725  .00001945  00000+0  28395-3 0  9994
2 64827  51.8993  97.9127 0005492 222.9899 137.0634 14.79968507 17985
KUIPER-00082            
1 64828U 25151N   25316.74420400 -.00004820  00000+0 -60277-3 0  9990
2 64828  51.9024  85.2131 0005481 242.4027 117.6379 14.79976779 18166
KUIPER-00083            
1 64829U 25151P   25316.80366573 -.00001375  00000+0 -15106-3 0  9991
2 64829  51.9002  92.4491 0010591 213.4227 146.6068 14.79905858 19258
KUIPER-00084            
1 64830U 25151Q   25316.79288638  .00008752  00000+0  11740-2 0  9999
2 64830  51.8982 102.4838 0011897 182.9578 177.1315 14.79956470 17924
KUIPER-00085            
1 64831U 25151R   25316.64296193  .00008548  00000+0  11475-2 0  9997
2 64831  51.9038  85.6733 0007339 218.3627 141.6814 14.79971403 18147
KUIPER-00086            
1 64832U 25151S   25316.83456539  .00011172  00000+0  14873-2 0  9993
2 64832  51.9012  94.8126 0011072 207.5846 152.4530 14.80035314 18037
KUIPER-00087            
1 64833U 25151T   25316.83336806 -.00929393  00000+0 -10876+0 0  9999
2 64833  51.9184  77.4433 0001105 235.0468 311.7645 14.87541373  5215
KUIPER-00089            
1 64834U 25151U   25316.08919858  .00005493  00000+0  75264-3 0  9991
2 64834  51.9006  85.4433 0001456 258.0644 102.0155 14.79727804 18103
KUIPER-00090            
1 64835U 25151V   25316.83336806 -.00613756  00000+0 -46913-1 0  9997
2 64835  51.9057  75.2971 0004531 293.1091 150.1847 15.03823936  5544
KUIPER-00091            
1 64836U 25151W   25316.83336806  .00033766  00000+0  46266-2 0  9995
2 64836  51.9162  79.8168 0007567 267.2282   6.2483 14.78137820  4891
KUIPER-00092            
1 64837U 25151X   25314.81040189 -.00012389  00000+0 -15751-2 0  9993
2 64837  51.9019  96.1987 0005939 217.5313 142.5235 14.80544081 19055
KUIPER-00093            
1 64838U 25151Y   25316.09729779  .00006386  00000+0  86412-3 0  9996
2 64838  51.8984  93.0692 0013825 217.3211 142.6792 14.79972302 17992
KUIPER-00094            
1 64839U 25151Z   25316.62900293  .00020686  00000+0  14966-2 0  9991
2 64839  51.8899  80.6744 0005370 241.3265 118.7168 15.03965562 18215
KUIPER-00081            
1 65132U 25171A   25316.83336806 -.00667548  00000+0 -21534-1 0  9990
2 65132  51.8754 313.8328 0005528  85.7000 291.8923 15.33958621  4985
KUIPER-00088            
1 65133U 25171B   25316.83336806  .00028549  00000+0  33999-2 0  9990
2 65133  51.8993 322.3604 0008387  92.2347  19.0866 14.84093532  1301
KUIPER-00095            
1 65134U 25171C   25316.83336806 -.00654148  00000+0 -25641-1 0  9997
2 65134  51.8782 314.5421 0004717  87.6943 286.7489 15.27686298  5832
KUIPER-00096            
1 65135U 25171D   25316.83336806 -.00280158  00000+0 -18440-1 0  9993
2 65135  51.9035 316.7678 0011533 105.6933 253.6283 15.08426406  5520
KUIPER-00097            
1 65136U 25171E   25316.83336806 -.01607902  00000+0 -13598+0 0  9992
2 65136  51.8943 318.6468 0010132 107.6180 324.1096 15.00834159  5836
KUIPER-00098            
1 65137U 25171F   25316.83336806 -.01304456  00000+0 -13953+0 0  9996
2 65137  51.8934 320.1788 0007950 110.4948   3.5793 14.91623139  4810
KUIPER-00099            
1 65138U 25171G   25316.83336806 -.00523462  00000+0 -24723-1 0  9995
2 65138  51.8862 315.0667 0008379 105.9689  60.2226 15.21305236  5469
KUIPER-00100            
1 65139U 25171H   25316.83336806 -.00427210  00000+0 -16885-1 0  9990
2 65139  51.8805 314.4922 0004486  81.1198 349.1284 15.26850281  3527
KUIPER-00102            
1 65140U 25171J   25316.83336806  .00061722  00000+0  26768-2 0  9994
2 65140  51.8844 315.1051 0008721  94.8760   2.3677 15.21740448  5765
KUIPER-00103            
1 65141U 25171K   25316.73601343 -.00092506  00000+0 -12233-1 0  9992
2 65141  51.9007 327.7482 0006374 100.4885 259.6796 14.80050693 15398
KUIPER-00104            
1 65142U 25171L   25316.83336806  .00054393  00000+0  30092-2 0  9997
2 65142  51.8878 316.9991 0005227 106.4895 207.3615 15.13322447  5915
KUIPER-00105            
1 65143U 25171M   25316.83336806 -.00891017  00000+0 -10702+0 0  9995
2 65143  51.9012 322.4423 0012535  81.7524 215.8176 14.86268029  3607
KUIPER-00106            
1 65144U 25171N   25316.73103125  .00018777  00000+0  16710-2 0  9991
2 65144  51.8949 326.0778 0009822  69.8719 290.3306 14.96048694 15428
KUIPER-00107            
1 65145U 25171P   25316.83336806 -.00452867  00000+0 -14894-1 0  9991
2 65145  51.8782 314.0348 0006597  96.7694 172.3179 15.32861700  5643
KUIPER-00108            
1 65146U 25171Q   25316.83336806 -.01131850  00000+0 -93980-1 0  9992
2 65146  51.8918 318.3719 0009039  88.2221 203.2792 15.01457312  5898
KUIPER-00109            
1 65147U 25171R   25316.83336806 -.00525344  00000+0 -29297-1 0  9997
2 65147  51.8834 315.8038 0013144  94.1406  79.0824 15.15152602  4876
KUIPER-00110            
1 65148U 25171S   25316.83336806 -.01370427  00000+0 -16654+0 0  9990
2 65148  51.8972 324.5946 0011120  83.6557 224.7719 14.86114039  4946
KUIPER-00111            
1 65149U 25171T   25316.76703522  .00008601  00000+0  11535-2 0  9991
2 65149  51.8990 330.1091 0010055  93.1029 267.1084 14.79991079 15360
KUIPER-00112            
1 65150U 25171U   25316.83336806 -.01203344  00000+0 -65941-1 0  9991
2 65150  51.8870 315.6581 0008119 119.2839  70.0017 15.16700396  4242
KUIPER-00114            
1 65151U 25171V   25316.76428206  .00003032  00000+0  42677-3 0  9992
2 65151  51.9024 332.6516 0006382  82.3744 277.7943 14.79920258 15321
KUIPER-00115            
1 65152U 25171W   25316.83336806  .00013362  00000+0  17722-2 0  9994
2 65152  51.9018 324.8215 0010204 105.3601 219.4743 14.80048101  5296
KUIPER-00116            
1 65153U 25171X   25316.72919941  .00007322  00000+0  10359-2 0  9998
2 65153  51.9000 330.2912 0010321  66.8594 293.3454 14.77910189 15353
KUIPER-00118            
1 65154U 25171Y   25316.32511722  .00011050  00000+0  14727-2 0  9996
2 65154  51.9020 334.5664 0001963  97.5805 262.5380 14.80030470 15261
KUIPER-00119            
1 65155U 25171Z   25316.83336806 -.00830767  00000+0 -91273-1 0  9997
2 65155  51.9167 320.2453 0008392  90.9595 235.6864 14.90163235  5699
KUIPER-00120            
1 65762U 25217A   25316.83336806 -.00747452  00000+0 -52531-1 0  9994
2 65762  51.8957 211.8753 0013155 266.9068  99.0759 15.07325872  5488
KUIPER-00132            
1 65763U 25217B   25316.72829382  .00060102  00000+0  16576-2 0  9997
2 65763  51.8624 209.8188 0005644 272.3482  87.6858 15.36515416  7420
KUIPER-00133            
1 65764U 25217C   25316.83336806 -.00015650  00000+0 -93723-3 0  9994
2 65764  51.8814 211.7890 0010021 289.8708 207.1516 15.09899348  5194
KUIPER-00139            
1 65765U 25217D   25316.83336806 -.00007215  00000+0 -29320-3 0  9995
2 65765  51.8712 210.2285 0006985 259.4208 262.5917 15.22478195  4946
KUIPER-00142            
1 65766U 25217E   25316.11315896  .00044861  00000+0  12027-2 0  9994
2 65766  51.8694 212.4787 0002424 218.3427 141.7387 15.37536534  7331
KUIPER-00145            
1 65767U 25217F   25316.70577417  .00082893  00000+0  22322-2 0  9995
2 65767  51.8701 209.6991 0003177 235.8076 124.2610 15.37118356  7429
KUIPER-00147            
1 65768U 25217G   25316.73437012  .00098164  00000+0  27233-2 0  9999
2 65768  51.8641 209.8636 0005147 262.5126  97.5275 15.36100801  7427
KUIPER-00148            
1 65769U 25217H   25316.23602496  .00080972  00000+0  22933-2 0  9995
2 65769  51.8604 212.4962 0008784 279.5886  80.4107 15.35527797  7342
KUIPER-00150            
1 65770U 25217J   25316.83336806 -.00803521  00000+0 -44947-1 0  9995
2 65770  51.8761 210.9575 0007064 271.5790 191.7189 15.15766828  5237
KUIPER-00151            
1 65771U 25217K   25316.83336806 -.00302833  00000+0 -94480-2 0  9994
2 65771  51.8709 209.1986 0004829 229.6392  62.9907 15.33910487  5097
KUIPER-00152            
1 65772U 25217L   25316.74081123  .00107973  00000+0  28040-2 0  9999
2 65772  51.8713 209.1913 0003062 160.5121 199.5984 15.38103094  7439
KUIPER-00153            
1 65773U 25217M   25316.83336806 -.00010639  00000+0 -52208-3 0  9999
2 65773  51.8731 211.0869 0011282 275.7187 191.1686 15.16563254  3219
KUIPER-00155            
1 65774U 25217N   25316.20371004  .00111746  00000+0  30745-2 0  9990
2 65774  51.8649 212.3124 0005188 243.5985 116.4469 15.36289074  7347
KUIPER-00156            
1 65775U 25217P   25316.74815037  .00056539  00000+0  14879-2 0  9997
2 65775  51.8721 209.2403 0002869 184.1472 175.9491 15.38003924  7433
KUIPER-00158            
1 65776U 25217Q   25316.83336806 -.00287748  00000+0 -10927-1 0  9999
2 65776  51.8721 209.5472 0005431 223.1874 269.4882 15.27536218  5785
KUIPER-00163            
1 65777U 25217R   25316.83336806 -.00554302  00000+0 -25942-1 0  9996
2 65777  51.8671 210.2118 0010000 289.4592 189.6195 15.21354955  1300
